{
  "type": "FeatureCollection",
  "features": [
    {
      "type": "Feature",
      "properties": {
        "norad_id": 34570,
        "name": "COSMOS 2251 DEB",
        "group": "cosmos-2251-debris",
        "lat": 35.0160421917025,
        "lon": 39.760115183131084,
        "alt_km": 768.6077047281033,
        "timestamp": "2025-12-05T04:52:15.684883+00:00",
        "meta_object_name": "COSMOS 2251 DEB",
        "meta_object_id": "1993-036VG",
        "meta_epoch": "2025-12-03T09:54:15.253056",
        "meta_mean_motion": 13.99796062,
        "meta_eccentricity": 0.01903141,
        "meta_inclination": 73.958,
        "meta_ra_of_asc_node": 234.502,
        "meta_arg_of_pericenter": 119.0694,
        "meta_mean_anomaly": 4.9485,
        "meta_ephemeris_type": 0,
        "meta_classification_type": "U",
        "meta_norad_cat_id": 34570,
        "meta_element_set_no": 999,
        "meta_rev_at_epoch": 85470,
        "meta_bstar": 0.00063026202,
        "meta_mean_motion_dot": 1.057e-05,
        "meta_mean_motion_ddot": 0,
        "tle_line1": "1 34570U 93036VG  25337.41267654  .00001057  00000+0  63026-3 0  9997",
        "tle_line2": "2 34570  73.9580 234.5020 0190314 119.0694   4.9485 13.99796062854703"
      },
      "geometry": {
        "type": "Point",
        "coordinates": [
          39.760115183131084,
          35.0160421917025
        ]
      }
    },
    {
      "type": "Feature",
      "properties": {
        "norad_id": 34571,
        "name": "COSMOS 2251 DEB",
        "group": "cosmos-2251-debris",
        "lat": 67.34317476379667,
        "lon": -26.72729182327287,
        "alt_km": 751.5950491617559,
        "timestamp": "2025-12-05T04:52:15.684892+00:00",
        "meta_object_name": "COSMOS 2251 DEB",
        "meta_object_id": "1993-036VH",
        "meta_epoch": "2025-12-03T00:59:43.530720",
        "meta_mean_motion": 14.48571332,
        "meta_eccentricity": 0.00666537,
        "meta_inclination": 74.0399,
        "meta_ra_of_asc_node": 200.6016,
        "meta_arg_of_pericenter": 237.8665,
        "meta_mean_anomaly": 121.6017,
        "meta_ephemeris_type": 0,
        "meta_classification_type": "U",
        "meta_norad_cat_id": 34571,
        "meta_element_set_no": 999,
        "meta_rev_at_epoch": 87153,
        "meta_bstar": 0.002487781,
        "meta_mean_motion_dot": 9.601e-05,
        "meta_mean_motion_ddot": 0,
        "tle_line1": "1 34571U 93036VH  25337.04147605  .00009601  00000+0  24878-2 0  9994",
        "tle_line2": "2 34571  74.0399 200.6016 0066653 237.8665 121.6017 14.48571332871532"
      },
      "geometry": {
        "type": "Point",
        "coordinates": [
          -26.72729182327287,
          67.34317476379667
        ]
      }
    },
    {
      "type": "Feature",
      "properties": {
        "norad_id": 34572,
        "name": "COSMOS 2251 DEB",
        "group": "cosmos-2251-debris",
        "lat": -57.78742170690891,
        "lon": 102.60770126399251,
        "alt_km": 736.13321901988,
        "timestamp": "2025-12-05T04:52:15.684901+00:00",
        "meta_object_name": "COSMOS 2251 DEB",
        "meta_object_id": "1993-036VJ",
        "meta_epoch": "2025-12-03T10:14:07.080576",
        "meta_mean_motion": 14.49672328,
        "meta_eccentricity": 0.00639869,
        "meta_inclination": 74.0096,
        "meta_ra_of_asc_node": 133.0197,
        "meta_arg_of_pericenter": 208.2005,
        "meta_mean_anomaly": 181.8869,
        "meta_ephemeris_type": 0,
        "meta_classification_type": "U",
        "meta_norad_cat_id": 34572,
        "meta_element_set_no": 999,
        "meta_rev_at_epoch": 87243,
        "meta_bstar": 0.0038394199,
        "meta_mean_motion_dot": 0.00015164,
        "meta_mean_motion_ddot": 0,
        "tle_line1": "1 34572U 93036VJ  25337.42647084  .00015164  00000+0  38394-2 0  9992",
        "tle_line2": "2 34572  74.0096 133.0197 0063986 208.2005 181.8869 14.49672328872433"
      },
      "geometry": {
        "type": "Point",
        "coordinates": [
          102.60770126399251,
          -57.78742170690891
        ]
      }
    },
    {
      "type": "Feature",
      "properties": {
        "norad_id": 34574,
        "name": "COSMOS 2251 DEB",
        "group": "cosmos-2251-debris",
        "lat": -15.010239546499331,
        "lon": 53.33869593275231,
        "alt_km": 669.2295288622972,
        "timestamp": "2025-12-05T04:52:15.684910+00:00",
        "meta_object_name": "COSMOS 2251 DEB",
        "meta_object_id": "1993-036VL",
        "meta_epoch": "2025-12-04T16:25:50.216736",
        "meta_mean_motion": 14.70463914,
        "meta_eccentricity": 0.0067032,
        "meta_inclination": 74.0702,
        "meta_ra_of_asc_node": 58.7342,
        "meta_arg_of_pericenter": 82.4746,
        "meta_mean_anomaly": 39.9307,
        "meta_ephemeris_type": 0,
        "meta_classification_type": "U",
        "meta_norad_cat_id": 34574,
        "meta_element_set_no": 999,
        "meta_rev_at_epoch": 88660,
        "meta_bstar": 0.0023767,
        "meta_mean_motion_dot": 0.00014916,
        "meta_mean_motion_ddot": 0,
        "tle_line1": "1 34574U 93036VL  25338.68460899  .00014916  00000+0  23767-2 0  9992",
        "tle_line2": "2 34574  74.0702  58.7342 0067032  82.4746  39.9307 14.70463914886601"
      },
      "geometry": {
        "type": "Point",
        "coordinates": [
          53.33869593275231,
          -15.010239546499331
        ]
      }
    },
    {
      "type": "Feature",
      "properties": {
        "norad_id": 34576,
        "name": "COSMOS 2251 DEB",
        "group": "cosmos-2251-debris",
        "lat": 5.482296693706184,
        "lon": 154.04909127969637,
        "alt_km": 709.2429314286401,
        "timestamp": "2025-12-05T04:52:15.684919+00:00",
        "meta_object_name": "COSMOS 2251 DEB",
        "meta_object_id": "1993-036VN",
        "meta_epoch": "2025-12-03T11:44:15.751680",
        "meta_mean_motion": 14.55313315,
        "meta_eccentricity": 0.00078434,
        "meta_inclination": 74.0325,
        "meta_ra_of_asc_node": 155.7197,
        "meta_arg_of_pericenter": 289.1778,
        "meta_mean_anomaly": 100.8938,
        "meta_ephemeris_type": 0,
        "meta_classification_type": "U",
        "meta_norad_cat_id": 34576,
        "meta_element_set_no": 999,
        "meta_rev_at_epoch": 88332,
        "meta_bstar": 0.0011687279,
        "meta_mean_motion_dot": 5.044e-05,
        "meta_mean_motion_ddot": 0,
        "tle_line1": "1 34576U 93036VN  25337.48907120  .00005044  00000+0  11687-2 0  9994",
        "tle_line2": "2 34576  74.0325 155.7197 0007843 289.1778 100.8938 14.55313315883321"
      },
      "geometry": {
        "type": "Point",
        "coordinates": [
          154.04909127969637,
          5.482296693706184
        ]
      }
    },
    {
      "type": "Feature",
      "properties": {
        "norad_id": 34577,
        "name": "COSMOS 2251 DEB",
        "group": "cosmos-2251-debris",
        "lat": -73.24748204179825,
        "lon": 71.9506143171139,
        "alt_km": 213.03481522370112,
        "timestamp": "2025-12-05T04:52:15.684928+00:00",
        "meta_object_name": "COSMOS 2251 DEB",
        "meta_object_id": "1993-036VP",
        "meta_epoch": "2025-12-03T15:57:51.278976",
        "meta_mean_motion": 15.9854535,
        "meta_eccentricity": 0.00051065,
        "meta_inclination": 73.9867,
        "meta_ra_of_asc_node": 183.0388,
        "meta_arg_of_pericenter": 128.5361,
        "meta_mean_anomaly": 231.6335,
        "meta_ephemeris_type": 0,
        "meta_classification_type": "U",
        "meta_norad_cat_id": 34577,
        "meta_element_set_no": 999,
        "meta_rev_at_epoch": 89384,
        "meta_bstar": 0.010022394,
        "meta_mean_motion_dot": 0.03828883,
        "meta_mean_motion_ddot": 0.020681734,
        "tle_line1": "1 34577U 93036VP  25337.66517684  .03828883  20682-1  10022-1 0  9995",
        "tle_line2": "2 34577  73.9867 183.0388 0005106 128.5361 231.6335 15.98545350893847"
      },
      "geometry": {
        "type": "Point",
        "coordinates": [
          71.9506143171139,
          -73.24748204179825
        ]
      }
    },
    {
      "type": "Feature",
      "properties": {
        "norad_id": 34579,
        "name": "COSMOS 2251 DEB",
        "group": "cosmos-2251-debris",
        "lat": 40.583208585560655,
        "lon": 43.746513667606465,
        "alt_km": 756.9063761028701,
        "timestamp": "2025-12-05T04:52:15.684937+00:00",
        "meta_object_name": "COSMOS 2251 DEB",
        "meta_object_id": "1993-036VR",
        "meta_epoch": "2025-12-04T11:52:17.372064",
        "meta_mean_motion": 14.45269557,
        "meta_eccentricity": 0.0027542,
        "meta_inclination": 74.0537,
        "meta_ra_of_asc_node": 239.2414,
        "meta_arg_of_pericenter": 309.1845,
        "meta_mean_anomaly": 104.3639,
        "meta_ephemeris_type": 0,
        "meta_classification_type": "U",
        "meta_norad_cat_id": 34579,
        "meta_element_set_no": 999,
        "meta_rev_at_epoch": 88055,
        "meta_bstar": 0.00097281,
        "meta_mean_motion_dot": 3.404e-05,
        "meta_mean_motion_ddot": 0,
        "tle_line1": "1 34579U 93036VR  25338.49464551  .00003404  00000+0  97281-3 0  9998",
        "tle_line2": "2 34579  74.0537 239.2414 0027542 309.1845 104.3639 14.45269557880551"
      },
      "geometry": {
        "type": "Point",
        "coordinates": [
          43.746513667606465,
          40.583208585560655
        ]
      }
    }
  ]
}